EQUISAT                 
1 43552U 98067PA  20304.43993735  .00109461  00000-0  42868-3 0  9993
2 43552  51.6284 310.5508 0002198  14.2803 345.8263 15.86149685131534
AEROCUBE 12A            
1 43556U 18046C   20304.38245605  .00002894  00000-0  10955-3 0  9990
2 43556  51.6406 177.0507 0008697  61.9506 298.2353 15.30264191128039
AEROCUBE 12B            
1 43557U 18046D   20304.07836488  .00002666  00000-0  10297-3 0  9998
2 43557  51.6399 179.5036 0008737  60.8791 299.3062 15.29911380127927
UITMSAT-1               
1 43589U 98067PD  20304.26618302  .00315638  52119-4  66194-3 0  9993
2 43589  51.6282 303.8611 0004821  47.2305 312.9109 15.98406316127348
MAYA-1                  
1 43590U 98067PE  20304.25748466  .00308238  50184-4  64664-3 0  9997
2 43590  51.6228 303.7227 0004705  51.1960 308.9469 15.98405489127270
BHUTAN-1                
1 43591U 98067PF  20304.26799708  .00347175  61552-4  69199-3 0  9996
2 43591  51.6281 303.2092 0004851  50.1748 309.9688 15.99290036127286
SIRIUSSAT-1             
1 43595U 98067PG  20304.06886590  .00067357  00000-0  23108-3 0  9992
2 43595  51.6199 313.8324 0003807   4.1036 357.4163 15.89014571126307
SIRIUSSAT-2             
1 43596U 98067PH  20304.39040995  .00127335  00000-0  43069-3 0  9991
2 43596  51.6332 313.0508 0002847  72.2649 288.0154 15.89057124126346
SURFSAT                 
1 43614U 18070B   20304.21801039  .00004562  00000-0  11445-3 0  9992
2 43614  93.0298 210.3975 0015303 164.9508 195.2205 15.39942512119212
CP7 (DAVE)              
1 43615U 18070C   20304.19870292  .00004328  00000-0  10926-3 0  9990
2 43615  93.0301 210.3710 0015477 164.8555 195.3166 15.39754466119203
ELFIN-B                 
1 43616U 18070D   20304.23841864  .00007351  00000-0  17524-3 0  9999
2 43616  93.0260 210.3815 0015682 165.0217 195.1506 15.41457721119270
ELFIN-A                 
1 43617U 18070E   20304.18771736  .00007700  00000-0  18200-3 0  9994
2 43617  93.0315 210.9882 0015270 161.5022 198.6792 15.41717332119272
CUBEBEL-1 (BSUSAT-1)    
1 43666U 18083E   20304.39490808  .00001707  00000-0  85896-4 0  9990
2 43666  97.4816 329.4809 0013219 248.6725 165.4787 15.18524597111094
CICERO 10               
1 43690U 18088A   20304.15949747  .00001523  00000-0  67792-4 0  9998
2 43690  85.0388 349.5576 0015259 167.3192 192.8436 15.20466275109221
IRVINE01                
1 43693U 18088D   20304.17215243  .00003510  00000-0  14477-3 0  9999
2 43693  85.0357 347.8060 0018883 148.7451 211.4919 15.23508382109353
PROXIMA I               
1 43694U 18088E   20304.39154553  .00001399  00000-0  58803-4 0  9995
2 43694  85.0329 347.5966 0020511 141.7868 218.4832 15.22212297109369
PROXIMA II              
1 43696U 18088G   20304.38965252  .00001380  00000-0  57970-4 0  9996
2 43696  85.0329 347.6029 0020553 141.7482 218.5223 15.22212498109368
FACSAT-1                
1 43721U 18096C   20304.44091612  .00002649  00000-0  10049-3 0  9995
2 43721  97.4102  17.2288 0017591  11.2995  47.8855 15.27620358106991
CENTAURI-2              
1 43722U 18096D   20304.20817232  .00003472  00000-0  12825-3 0  9993
2 43722  97.4119  17.4170 0017429  11.3791 348.7839 15.28280589106979
INNOSAT-2               
1 43738U 18096V   20304.26942275  .00004853  00000-0  16303-3 0  9991
2 43738  97.4144  20.0341 0023146  14.4553  30.0781 15.31073358107153
SIRION PATHFINDER-2     
1 43759U 18099B   20304.08242936  .00000614  00000-0  60718-4 0  9995
2 43759  97.6935  13.3578 0015924  94.8850 265.4198 14.95338050104054
CORVUS-BC 4             
1 43767U 18099K   20304.00668220  .00000626  00000-0  62688-4 0  9995
2 43767  97.6914  12.5463 0013308  99.2618 261.0070 14.94778795104008
MOVE-II                 
1 43780U 18099Y   20304.14848259  .00001280  00000-0  12040-3 0  9990
2 43780  97.6946  13.4042 0015062 104.1673 256.1223 14.95537495104047
SPACEBEE-7              
1 43816U 18099BL  20304.19609676  .00000589  00000-0  57835-4 0  9996
2 43816  97.6957  13.9235 0014736  89.7371 270.5538 14.95805018103630
SPACEBEE-5              
1 43817U 18099BM  20304.15523471  .00002102  00000-0  18937-3 0  9993
2 43817  97.7026  14.5668 0014712  90.3136 269.9771 14.96574026103653
SPACEBEE-6              
1 43818U 18099BN  20304.20746967  .00001211  00000-0  11281-3 0  9992
2 43818  97.6976  14.1459 0014757  89.9193 270.3720 14.96041454103796
SHIELDS 1               
1 43850U 18104B   20304.42825441  .00000853  00000-0  36085-4 0  9995
2 43850  85.0277  86.1064 0012848 298.6441  61.3508 15.21507938103999
STF-1                   
1 43852U 18104D   20304.44447559  .00001866  00000-0  80940-4 0  9993
2 43852  85.0316  86.7165 0012920 315.1499  44.8697 15.21562776103976
ZACUBE-2                
1 43907U 18111AH  20304.47411612  .00001227  00000-0  52066-4 0  9995
2 43907  97.2506 200.0609 0022627  30.1423  73.6531 15.24743709102586
LUME 1                  
1 43908U 18111AJ  20304.40017307  .00001857  00000-0  76023-4 0  9990
2 43908  97.2510 200.2649 0022047  30.2605 329.9902 15.25323267102591
AOBA VELOX-IV           
1 43940U 19003J   20304.13364266  .00003114  00000-0  12458-3 0  9995
2 43940  97.2128 350.7115 0025237 105.8820 254.5202 15.25511675 99170
CATSAT-2                
1 44029U 98067PV  20304.21189365  .00049074  00000-0  38548-3 0  9998
2 44029  51.6392 350.6530 0002219 287.2978  72.7777 15.71009208 99666
DELPHINI                
1 44030U 98067PW  20304.43264011  .00050023  00000-0  36135-3 0  9992
2 44030  51.6332 346.6795 0001679 305.2162  54.8680 15.72988259 99707
UNITE                   
1 44031U 98067PX  20304.19070452  .00021157  00000-0  22210-3 0  9995
2 44031  51.6387   1.7345 0001589 237.8888 122.1952 15.64307227 99480
CATSAT-1                
1 44033U 98067PZ  20304.40265128  .00046581  00000-0  36621-3 0  9996
2 44033  51.6394 349.6867 0002196 287.1933  72.8824 15.71011239 99603
RAAVANA-1               
1 44329U 98067QE  20304.42852514  .00021793  00000-0  25852-3 0  9999
2 44329  51.6400  16.1583 0004496 139.5624 220.5704 15.61126373 78063
UGUISU                  
1 44330U 98067QF  20304.25774532  .00021476  00000-0  25613-3 0  9998
2 44330  51.6384  17.2309 0004487 138.2745 221.8592 15.60996897 78013
NEPALISAT-1             
1 44331U 98067QG  20304.48370732  .00021463  00000-0  25459-3 0  9992
2 44331  51.6378  15.7424 0004443 142.6835 217.4468 15.61138418 78065
SPOOQY-1                
1 44332U 98067QH  20304.43387715  .00020768  00000-0  24833-3 0  9999
2 44332  51.6392  16.1699 0003621 144.6387 215.4847 15.60955252 78018
SPACEBEE-9              
1 44370U 19037F   20304.39798231  .00019753  00000-0  40285-3 0  9996
2 44370  45.0052  80.1015 0014642 265.9859  93.9357 15.45848088 75461
SPACEBEE-8              
1 44371U 19037G   20304.07509873  .00048310  00000-0  75839-3 0  9998
2 44371  45.0061  70.1034 0013551 278.9091  81.0268 15.52875453 75555
IOD-1 GEMS              
1 44385U 98067QK  20304.45605086  .00044378  00000-0  43072-3 0  9992
2 44385  51.6397  11.1347 0002320  60.1610 299.9616 15.65876478 75590
MOVE-IIB                
1 44398U 19038N   20304.18668665  .00002522  00000-0  14689-3 0  9996
2 44398  97.5512 263.8347 0026230  26.1410 334.1139 15.12656295 72947
SONATE                  
1 44400U 19038Q   20304.19436891  .00001131  00000-0  69014-4 0  9993
2 44400  97.5545 263.8425 0026139  25.4763 334.7749 15.12101970 72932
LUCKY-7                 
1 44406U 19038W   20304.45002883  .00001200  00000-0  72474-4 0  9999
2 44406  97.5570 264.2487 0025299  24.4908 335.7518 15.12395624 72975
BEESAT 9                
1 44412U 19038AC  20303.84399414  .00001731  00000-0  10254-3 0  9993
2 44412  97.5559 263.6336 0023565  32.2742 327.9924 15.12532086 72588
JAISAT-1                
1 44419U 19038F   20304.41655060  .00001554  00000-0  91270-4 0  9997
2 44419  97.5562 264.5675 0022318  29.3870 330.8610 15.13017887 73000
SWIATOWID               
1 44426U 98067QL  20304.44037671  .00051104  00000-0  45621-3 0  9993
2 44426  51.6403   9.2505 0002733  53.5940  57.5798 15.67888156 75630
KRAKSAT                 
1 44427U 98067QM  20304.46371751  .00015044  00000-0  20125-3 0  9991
2 44427  51.6425  21.5067 0003374  87.7125   0.0307 15.58243683 75517
VCC A                   
1 44428U 98067QN  20304.48180782  .00019719  00000-0  24201-3 0  9998
2 44428  51.6408  18.0650 0002148  96.2573 263.8665 15.60312344 75563
ENTRYSAT                
1 44429U 98067QP  20304.46850672  .00025263  00000-0  28816-3 0  9996
2 44429  51.6387  15.6770 0002003  78.1973 281.9245 15.62056943 75599
VCC C                   
1 44430U 98067QQ  20304.24233382  .00037690  00000-0  38992-3 0  9990
2 44430  51.6384  14.1698 0001403  70.8332 289.2815 15.64344534 74425
VCC B                   
1 44431U 98067QR  20304.47626226  .00020296  00000-0  24797-3 0  9991
2 44431  51.6391  17.9948 0002282  96.0998 264.0255 15.60409653 75506
DUCHIFAT-3              
1 44854U 19089C   20304.50514560  .00000708  00000-0  63468-4 0  9993
2 44854  36.9663  20.1650 0007650  66.1106 294.0427 14.99174193 48572
EYESAT-NANO             
1 44877U 19092E   20304.17023068  .00001693  00000-0  88727-4 0  9992
2 44877  97.4565 125.2880 0012107 271.3237  88.6610 15.17097095 48016
ORBITAL FACTORY 2 (OF-2)
1 45113U 19071C   20303.59245373  .00004170  00000-0  13630-3 0  9996
2 45113  51.6427  75.3316 0012952 178.5610 181.5411 15.33907941 41719
M2 PATHFINDER           
1 45727U 20037E   20304.00964602  .00000037  00000-0  92723-5 0  9991
2 45727  97.7032 121.0057 0012143 208.0663 151.9869 14.91246107 18077
NETSAT-4                
1 46504U 20068U   20303.79430506 -.00000054  00000-0  45638-6 0  9999
2 46504  97.6648 236.9225 0012301 144.1441 216.0608 15.01838220  4610
NETSAT-3                
1 46505U 20068V   20304.26147731 -.00000053  00000-0  54860-6 0  9994
2 46505  97.6644 237.3822 0012023 141.4030 218.7957 15.01800945  4697
